[{"OBJECT_NAME":"STARLINK-35391","OBJECT_ID":"2025-270AE","EPOCH":"2026-03-09T22:55:30.056736","MEAN_MOTION":15.27597344,"ECCENTRICITY":0.00012095,"INCLINATION":43.002,"RA_OF_ASC_NODE":54.9184,"ARG_OF_PERICENTER":183.6538,"MEAN_ANOMALY":176.4305,"EPHEMERIS_TYPE":0,"CLASSIFICATION_TYPE":"U","NORAD_CAT_ID":66616,"ELEMENT_SET_NO":999,"REV_AT_EPOCH":1785,"BSTAR":0.0012332792,"MEAN_MOTION_DOT":0.00033849,"MEAN_MOTION_DDOT":0},{"OBJECT_NAME":"USA 23","OBJECT_ID":"1987-043E","EPOCH":"2026-03-09T21:08:44.965536","MEAN_MOTION":13.85441647,"ECCENTRICITY":0.07926517,"INCLINATION":63.2919,"RA_OF_ASC_NODE":275.6302,"ARG_OF_PERICENTER":103.3692,"MEAN_ANOMALY":265.6899,"EPHEMERIS_TYPE":0,"CLASSIFICATION_TYPE":"U","NORAD_CAT_ID":18009,"ELEMENT_SET_NO":999,"REV_AT_EPOCH":33172,"BSTAR":0.00082001328,"MEAN_MOTION_DOT":0.00014079,"MEAN_MOTION_DDOT":0}]
